IRIDIUM 7               
1 24793U 97020B   25170.47700161  .00000297  00000+0  95621-4 0  9998
2 24793  86.3981 175.9513 0002588  91.7682 268.3811 14.35940865472444
IRIDIUM 5               
1 24795U 97020D   25170.72008444  .00003099  00000+0  25205-3 0  9996
2 24795  86.3885  82.5652 0110709 128.3623 232.7617 14.94374057485849
IRIDIUM 4               
1 24796U 97020E   25170.38937117  .00000313  00000+0  99429-4 0  9993
2 24796  86.3977 172.8670 0002348  92.5103 267.6363 14.36843477472786
IRIDIUM 914             
1 24836U 97030A   25170.59459832  .00000357  00000+0  10530-3 0  9998
2 24836  86.3956 181.3699 0001997 132.5670 227.5698 14.40873822607471
IRIDIUM 16              
1 24841U 97030F   25170.48857940  .00000267  00000+0  80538-4 0  9990
2 24841  86.4049 204.3076 0004406  74.9642 285.2044 14.38716443467339
IRIDIUM 911             
1 24842U 97030G   25171.08879883  .00000379  00000+0  97049-4 0  9997
2 24842  86.4473 202.8224 0016603  88.5211 271.7895 14.47642418475483
IRIDIUM 17              
1 24870U 97034B   25170.40765724  .00000324  00000+0  10085-3 0  9999
2 24870  86.3962 233.8178 0002987  59.8498 300.2995 14.37830970463900
IRIDIUM 920             
1 24871U 97034C   25170.51417632  .00000299  00000+0  85805-4 0  9998
2 24871  86.3986 213.0021 0013853  77.2050 283.0697 14.41535932466912
